{
  "type": "FeatureCollection",
  "features": [
    {
      "type": "Feature",
      "properties": {
        "norad_id": 37846,
        "name": "GSAT0101 (GALILEO-PFM)",
        "group": "gnss",
        "lat": 29.078100563100467,
        "lon": 145.96435601697561,
        "alt_km": 23225.786926130786,
        "timestamp": "2025-12-02T13:52:17.503940+00:00",
        "meta_object_name": "GSAT0101 (GALILEO-PFM)",
        "meta_object_id": "2011-060A",
        "meta_epoch": "2025-11-24T03:07:29.832960",
        "meta_mean_motion": 1.70475782,
        "meta_eccentricity": 0.00025776,
        "meta_inclination": 57.0574,
        "meta_ra_of_asc_node": 347.3256,
        "meta_arg_of_pericenter": 308.2281,
        "meta_mean_anomaly": 51.7929,
        "meta_ephemeris_type": 0,
        "meta_classification_type": "U",
        "meta_norad_cat_id": 37846,
        "meta_element_set_no": 999,
        "meta_rev_at_epoch": 8762,
        "meta_bstar": 0,
        "meta_mean_motion_dot": -6.3e-07,
        "meta_mean_motion_ddot": 0,
        "tle_line1": "1 37846U 11060A   25328.13020640 -.00000063  00000+0  00000+0 0  9990",
        "tle_line2": "2 37846  57.0574 347.3256 0002577 308.2281  51.7929  1.70475782 87620"
      },
      "geometry": {
        "type": "Point",
        "coordinates": [
          145.96435601697561,
          29.078100563100467
        ]
      }
    },
    {
      "type": "Feature",
      "properties": {
        "norad_id": 37847,
        "name": "GSAT0102 (GALILEO-FM2)",
        "group": "gnss",
        "lat": -8.393899938652224,
        "lon": 172.59614199423834,
        "alt_km": 23229.240258340917,
        "timestamp": "2025-12-02T13:52:17.503952+00:00",
        "meta_object_name": "GSAT0102 (GALILEO-FM2)",
        "meta_object_id": "2011-060B",
        "meta_epoch": "2025-11-29T14:59:45.115008",
        "meta_mean_motion": 1.70475771,
        "meta_eccentricity": 0.00046767,
        "meta_inclination": 57.0566,
        "meta_ra_of_asc_node": 347.1768,
        "meta_arg_of_pericenter": 305.2654,
        "meta_mean_anomaly": 232.3795,
        "meta_ephemeris_type": 0,
        "meta_classification_type": "U",
        "meta_norad_cat_id": 37847,
        "meta_element_set_no": 999,
        "meta_rev_at_epoch": 8772,
        "meta_bstar": 0,
        "meta_mean_motion_dot": -5.6e-07,
        "meta_mean_motion_ddot": 0,
        "tle_line1": "1 37847U 11060B   25333.62482772 -.00000056  00000+0  00000+0 0  9991",
        "tle_line2": "2 37847  57.0566 347.1768 0004676 305.2654 232.3795  1.70475771 87728"
      },
      "geometry": {
        "type": "Point",
        "coordinates": [
          172.59614199423834,
          -8.393899938652224
        ]
      }
    },
    {
      "type": "Feature",
      "properties": {
        "norad_id": 37867,
        "name": "COSMOS 2476 (744)",
        "group": "gnss",
        "lat": 7.382574987355625,
        "lon": -103.92252435078919,
        "alt_km": 19100.248068585664,
        "timestamp": "2025-12-02T13:52:17.503965+00:00",
        "meta_object_name": "COSMOS 2476 (744)",
        "meta_object_id": "2011-064A",
        "meta_epoch": "2025-12-01T09:39:55.197216",
        "meta_mean_motion": 2.13101277,
        "meta_eccentricity": 0.002392,
        "meta_inclination": 65.1564,
        "meta_ra_of_asc_node": 79.5552,
        "meta_arg_of_pericenter": 233.3514,
        "meta_mean_anomaly": 117.0738,
        "meta_ephemeris_type": 0,
        "meta_classification_type": "U",
        "meta_norad_cat_id": 37867,
        "meta_element_set_no": 999,
        "meta_rev_at_epoch": 10954,
        "meta_bstar": 0,
        "meta_mean_motion_dot": -1.3e-07,
        "meta_mean_motion_ddot": 0,
        "tle_line1": "1 37867U 11064A   25335.40272219 -.00000013  00000+0  00000+0 0  9991",
        "tle_line2": "2 37867  65.1564  79.5552 0023920 233.3514 117.0738  2.13101277109540"
      },
      "geometry": {
        "type": "Point",
        "coordinates": [
          -103.92252435078919,
          7.382574987355625
        ]
      }
    },
    {
      "type": "Feature",
      "properties": {
        "norad_id": 37868,
        "name": "COSMOS 2477 (745)",
        "group": "gnss",
        "lat": -6.230979680408976,
        "lon": 76.69677413560412,
        "alt_km": 19157.404156482604,
        "timestamp": "2025-12-02T13:52:17.503981+00:00",
        "meta_object_name": "COSMOS 2477 (745)",
        "meta_object_id": "2011-064B",
        "meta_epoch": "2025-12-01T05:34:43.743072",
        "meta_mean_motion": 2.1310269,
        "meta_eccentricity": 0.00209845,
        "meta_inclination": 65.1625,
        "meta_ra_of_asc_node": 79.6383,
        "meta_arg_of_pericenter": 233.8301,
        "meta_mean_anomaly": 166.8442,
        "meta_ephemeris_type": 0,
        "meta_classification_type": "U",
        "meta_norad_cat_id": 37868,
        "meta_element_set_no": 999,
        "meta_rev_at_epoch": 10954,
        "meta_bstar": 0,
        "meta_mean_motion_dot": -1.2e-07,
        "meta_mean_motion_ddot": 0,
        "tle_line1": "1 37868U 11064B   25335.23245073 -.00000012  00000+0  00000+0 0  9990",
        "tle_line2": "2 37868  65.1625  79.6383 0020984 233.8301 166.8442  2.13102690109542"
      },
      "geometry": {
        "type": "Point",
        "coordinates": [
          76.69677413560412,
          -6.230979680408976
        ]
      }
    },
    {
      "type": "Feature",
      "properties": {
        "norad_id": 37869,
        "name": "COSMOS 2475 (743)",
        "group": "gnss",
        "lat": -44.70968829163517,
        "lon": 52.374664820092626,
        "alt_km": 19103.171803558977,
        "timestamp": "2025-12-02T13:52:17.503993+00:00",
        "meta_object_name": "COSMOS 2475 (743)",
        "meta_object_id": "2011-064C",
        "meta_epoch": "2025-12-01T05:41:50.555616",
        "meta_mean_motion": 2.13101369,
        "meta_eccentricity": 0.00260135,
        "meta_inclination": 65.1695,
        "meta_ra_of_asc_node": 79.658,
        "meta_arg_of_pericenter": 248.1873,
        "meta_mean_anomaly": 112.2788,
        "meta_ephemeris_type": 0,
        "meta_classification_type": "U",
        "meta_norad_cat_id": 37869,
        "meta_element_set_no": 999,
        "meta_rev_at_epoch": 10955,
        "meta_bstar": 0,
        "meta_mean_motion_dot": -1.2e-07,
        "meta_mean_motion_ddot": 0,
        "tle_line1": "1 37869U 11064C   25335.23739069 -.00000012  00000+0  00000+0 0  9994",
        "tle_line2": "2 37869  65.1695  79.6580 0026013 248.1873 112.2788  2.13101369109552"
      },
      "geometry": {
        "type": "Point",
        "coordinates": [
          52.374664820092626,
          -44.70968829163517
        ]
      }
    },
    {
      "type": "Feature",
      "properties": {
        "norad_id": 37948,
        "name": "BEIDOU-2 IGSO-5 (C10)",
        "group": "gnss",
        "lat": 47.58830630434615,
        "lon": 14.513151344768357,
        "alt_km": 36039.44618942015,
        "timestamp": "2025-12-02T13:52:17.504013+00:00",
        "meta_object_name": "BEIDOU-2 IGSO-5 (C10)",
        "meta_object_id": "2011-073A",
        "meta_epoch": "2025-12-01T19:23:12.254208",
        "meta_mean_motion": 1.00292861,
        "meta_eccentricity": 0.01108827,
        "meta_inclination": 48.0424,
        "meta_ra_of_asc_node": 273.9939,
        "meta_arg_of_pericenter": 222.2372,
        "meta_mean_anomaly": 317.7789,
        "meta_ephemeris_type": 0,
        "meta_classification_type": "U",
        "meta_norad_cat_id": 37948,
        "meta_element_set_no": 999,
        "meta_rev_at_epoch": 5115,
        "meta_bstar": 0,
        "meta_mean_motion_dot": -1.75e-06,
        "meta_mean_motion_ddot": 0,
        "tle_line1": "1 37948U 11073A   25335.80778072 -.00000175  00000+0  00000+0 0  9992",
        "tle_line2": "2 37948  48.0424 273.9939 0110882 222.2372 317.7789  1.00292861 51150"
      },
      "geometry": {
        "type": "Point",
        "coordinates": [
          14.513151344768357,
          47.58830630434615
        ]
      }
    },
    {
      "type": "Feature",
      "properties": {
        "norad_id": 37951,
        "name": "LUCH 5A (SDCM/PRN 140)",
        "group": "gnss",
        "lat": 1.4445192980460613,
        "lon": 86.58658072784378,
        "alt_km": 35809.19048880596,
        "timestamp": "2025-12-02T13:52:17.504026+00:00",
        "meta_object_name": "LUCH 5A (SDCM/PRN 140)",
        "meta_object_id": "2011-074B",
        "meta_epoch": "2025-12-02T01:27:38.477664",
        "meta_mean_motion": 1.00273251,
        "meta_eccentricity": 0.00058464,
        "meta_inclination": 8.2506,
        "meta_ra_of_asc_node": 76.7428,
        "meta_arg_of_pericenter": 173.0027,
        "meta_mean_anomaly": 10.307,
        "meta_ephemeris_type": 0,
        "meta_classification_type": "U",
        "meta_norad_cat_id": 37951,
        "meta_element_set_no": 999,
        "meta_rev_at_epoch": 5107,
        "meta_bstar": 0,
        "meta_mean_motion_dot": -3e-07,
        "meta_mean_motion_ddot": 0,
        "tle_line1": "1 37951U 11074B   25336.06086201 -.00000030  00000+0  00000+0 0  9992",
        "tle_line2": "2 37951   8.2506  76.7428 0005846 173.0027  10.3070  1.00273251 51070"
      },
      "geometry": {
        "type": "Point",
        "coordinates": [
          86.58658072784378,
          1.4445192980460613
        ]
      }
    }
  ]
}